NORAD_CAT_ID,OBJECT_NAME,OBJECT_TYPE,EPOCH,MEAN_MOTION,ECCENTRICITY,INCLINATION,RA_OF_ASC_NODE,ARG_OF_PERICENTER,MEAN_ANOMALY,BSTAR,MEAN_MOTION_DOT,MEAN_MOTION_DDOT,TLE_LINE0,TLE_LINE1,TLE_LINE2,SEMIMAJOR_AXIS,PERIOD,APOGEE,PERIGEE,DECAYED
53800.0,STARLINK-4720,PAYLOAD,2024-03-10 03:56:50,15.08853656,0.0001204,53.215,299.0321,101.3788,258.7339,0.00042,6.405e-05,0.0,0 STARLINK-4720,1 53800U 22111AD  24070.16446838  .00006405  00000-0  42000-3 0  9990,2 53800  53.2150 299.0321 0001204 101.3788 258.7339 15.08853656 82874,6917.839,95.437,540.537,538.871,0.0
53800.0,STARLINK-4720,PAYLOAD,2024-03-10 11:53:46,15.08834617,0.000134,53.2148,297.5459,87.4048,272.7098,-9.3217e-05,-1.771e-05,0.0,0 STARLINK-4720,1 53800U 22111AD  24070.49567425 -.00001771  00000-0 -93217-4 0  9992,2 53800  53.2148 297.5459 0001340  87.4048 272.7098 15.08834617 82920,6917.897,95.438,540.689,538.835,0.0
53800.0,STARLINK-4720,PAYLOAD,2024-03-10 15:04:32,15.08836018,0.0001268,53.2151,296.9501,97.5107,262.603,-4.3403e-05,-9.78e-06,0.0,0 STARLINK-4720,1 53800U 22111AD  24070.62815414 -.00000978  00000-0 -43403-4 0  9991,2 53800  53.2151 296.9501 0001268  97.5107 262.6030 15.08836018 83755,6917.893,95.438,540.635,538.88,0.0
53800.0,STARLINK-4720,PAYLOAD,2024-03-10 21:26:05,15.08838857,0.0001268,53.2154,295.7607,92.4377,267.676,2.3867e-05,9.2e-07,0.0,0 STARLINK-4720,1 53800U 22111AD  24070.89311369  .00000092  00000-0  23867-4 0  9997,2 53800  53.2154 295.7607 0001268  92.4377 267.6760 15.08838857 83797,6917.884,95.438,540.626,538.872,0.0
53800.0,STARLINK-4720,PAYLOAD,2024-03-11 13:19:56,15.08838313,0.0001237,53.2153,292.7868,90.5638,269.5495,7.9565e-05,9.79e-06,0.0,0 STARLINK-4720,1 53800U 22111AD  24071.55551570  .00000979  00000-0  79565-4 0  9991,2 53800  53.2153 292.7868 0001237  90.5638 269.5495 15.08838313 83082,6917.886,95.438,540.606,538.895,0.0
53800.0,STARLINK-4720,PAYLOAD,2024-03-11 14:55:19,15.08835332,0.0001241,53.2152,292.4896,91.213,268.9004,-2.264e-05,-6.48e-06,0.0,0 STARLINK-4720,1 53800U 22111AD  24071.62175696 -.00000648  00000-0 -22640-4 0  9997,2 53800  53.2152 292.4896 0001241  91.2130 268.9004 15.08835332 83907,6917.895,95.438,540.618,538.901,0.0
53800.0,STARLINK-4720,PAYLOAD,2024-03-12 16:21:30,15.08838812,0.0001221,53.2153,287.731,90.1638,269.9494,0.00027938,4.161e-05,0.0,0 STARLINK-4720,1 53800U 22111AD  24072.68159959  .00004161  00000-0  27938-3 0  9994,2 53800  53.2153 287.7310 0001221  90.1638 269.9494 15.08838812 83253,6917.884,95.438,540.594,538.904,0.0
53800.0,STARLINK-4720,PAYLOAD,2024-03-12 21:07:39,15.08843031,0.0001241,53.2153,286.839,91.4482,268.6652,0.00028135,4.193e-05,0.0,0 STARLINK-4720,1 53800U 22111AD  24072.88031781  .00004193  00000-0  28135-3 0  9993,2 53800  53.2153 286.8390 0001241  91.4482 268.6652 15.08843031 84098,6917.871,95.437,540.595,538.878,0.0
53800.0,STARLINK-4720,PAYLOAD,2024-03-13 14:36:54,15.08831402,0.0001306,53.2153,283.5681,92.5502,267.564,7.4914e-05,9.04e-06,0.0,0 STARLINK-4720,1 53800U 22111AD  24073.60896320  .00000904  00000-0  74914-4 0  9995,2 53800  53.2153 283.5681 0001306  92.5502 267.5640 15.08831402 84209,6917.907,95.438,540.675,538.868,0.0
53800.0,STARLINK-4720,PAYLOAD,2024-03-13 20:58:26,15.08840735,0.0001298,53.2153,282.3786,90.7251,269.389,0.00012363,1.68e-05,0.0,0 STARLINK-4720,1 53800U 22111AD  24073.87391892  .00001680  00000-0  12363-3 0  9999,2 53800  53.2153 282.3786 0001298  90.7251 269.3890 15.08840735 83433,6917.878,95.438,540.641,538.845,0.0
53800.0,STARLINK-4720,PAYLOAD,2024-03-13 22:33:49,15.08843938,0.0001305,53.2153,282.0811,91.0507,269.0635,0.00020891,3.039e-05,0.0,0 STARLINK-4720,1 53800U 22111AD  24073.94015840  .00003039  00000-0  20891-3 0  9998,2 53800  53.2153 282.0811 0001305  91.0507 269.0635 15.08843938 84259,6917.868,95.437,540.636,538.831,0.0
53800.0,STARLINK-4720,PAYLOAD,2024-03-14 06:30:45,15.08844241,0.0001321,53.2153,280.5939,91.6868,268.4275,0.00043623,6.662e-05,0.0,0 STARLINK-4720,1 53800U 22111AD  24074.27135778  .00006662  00000-0  43623-3 0  9991,2 53800  53.2153 280.5939 0001321  91.6868 268.4275 15.08844241 84304,6917.867,95.437,540.646,538.819,0.0
53800.0,STARLINK-4720,PAYLOAD,2024-03-14 12:52:18,15.08827805,0.0001338,53.2151,279.4044,80.9683,279.1461,-0.00018382,-3.211e-05,0.0,0 STARLINK-4720,1 53800U 22111AD  24074.53632296 -.00003211  00000-0 -18382-3 0  9990,2 53800  53.2151 279.4044 0001338  80.9683 279.1461 15.08827805 83537,6917.918,95.438,540.708,538.857,0.0
53800.0,STARLINK-4720,PAYLOAD,2024-03-14 20:49:13,15.0884231,0.0001318,53.2152,277.9178,92.3466,267.7677,0.00029448,4.402e-05,0.0,0 STARLINK-4720,1 53800U 22111AD  24074.86751956  .00004402  00000-0  29448-3 0  9997,2 53800  53.2152 277.9178 0001318  92.3466 267.7677 15.08842310 83588,6917.873,95.437,540.65,538.827,0.0
53800.0,STARLINK-4720,PAYLOAD,2024-03-14 22:24:36,15.08844644,0.0001338,53.2152,277.6204,91.3383,268.7762,0.00035931,5.436e-05,0.0,0 STARLINK-4720,1 53800U 22111AD  24074.93375920  .00005436  00000-0  35931-3 0  9990,2 53800  53.2152 277.6204 0001338  91.3383 268.7762 15.08844644 84404,6917.866,95.437,540.657,538.806,0.0
53800.0,STARLINK-4720,PAYLOAD,2024-03-15 22:15:23,15.08845744,0.0001289,53.2152,273.1594,90.9083,269.2056,0.00023572,3.466e-05,0.0,0 STARLINK-4720,1 53800U 22111AD  24075.92735829  .00003466  00000-0  23572-3 0  9997,2 53800  53.2152 273.1594 0001289  90.9083 269.2056 15.08845744 84554,6917.863,95.437,540.62,538.836,0.0
53800.0,STARLINK-4720,PAYLOAD,2024-03-16 01:26:09,15.08848733,0.0001299,53.2151,272.5649,91.7273,268.3868,0.00028808,4.301e-05,0.0,0 STARLINK-4720,1 53800U 22111AD  24076.05983700  .00004301  00000-0  28808-3 0  9991,2 53800  53.2151 272.5649 0001299  91.7273 268.3868 15.08848733 83762,6917.854,95.437,540.617,538.82,0.0
53800.0,STARLINK-4720,PAYLOAD,2024-03-16 12:33:52,15.08840084,0.0001293,53.2152,270.4829,90.8117,269.3023,4.9518e-05,5e-06,0.0,0 STARLINK-4720,1 53800U 22111AD  24076.52351918  .00000500  00000-0  49518-4 0  9992,2 53800  53.2152 270.4829 0001293  90.8117 269.3023 15.08840084 83834,6917.88,95.438,540.64,538.851,0.0
53800.0,STARLINK-4720,PAYLOAD,2024-03-16 14:09:15,15.08838141,0.0001283,53.2152,270.1855,89.6857,270.4283,6.6821e-05,7.76e-06,0.0,0 STARLINK-4720,1 53800U 22111AD  24076.58976016  .00000776  00000-0  66821-4 0  9991,2 53800  53.2152 270.1855 0001283  89.6857 270.4283 15.08838141 84659,6917.886,95.438,540.639,538.864,0.0
53800.0,STARLINK-4720,PAYLOAD,2024-03-16 22:06:10,15.08841744,0.000132,53.2155,268.6987,89.5721,270.5422,0.00012417,1.689e-05,0.0,0 STARLINK-4720,1 53800U 22111AD  24076.92095944  .00001689  00000-0  12417-3 0  9996,2 53800  53.2155 268.6987 0001320  89.5721 270.5422 15.08841744 84706,6917.875,95.437,540.653,538.827,0.0
53800.0,STARLINK-4720,PAYLOAD,2024-03-17 12:24:40,15.08824841,0.0001201,53.2154,266.0224,102.0384,258.0743,0.00053255,8.194e-05,0.0,0 STARLINK-4720,1 53800U 22111AD  24077.51713034  .00008194  00000-0  53255-3 0  9992,2 53800  53.2154 266.0224 0001201 102.0384 258.0743 15.08824841 83980,6917.927,95.439,540.623,538.961,0.0
53800.0,STARLINK-4720,PAYLOAD,2024-03-17 21:56:57,15.08844623,0.0001302,53.2162,264.2381,88.348,271.7661,0.00011653,1.567e-05,0.0,0 STARLINK-4720,1 53800U 22111AD  24077.91455785  .00001567  00000-0  11653-3 0  9995,2 53800  53.2162 264.2381 0001302  88.3480 271.7661 15.08844623 84856,6917.866,95.437,540.632,538.831,0.0
53800.0,STARLINK-4720,PAYLOAD,2024-03-18 21:47:45,15.08837676,0.0001339,53.2162,259.7774,84.2894,275.825,7.6529e-05,9.3e-06,0.0,0 STARLINK-4720,1 53800U 22111AD  24078.90816345  .00000930  00000-0  76529-4 0  9995,2 53800  53.2162 259.7774 0001339  84.2894 275.8250 15.08837676 85002,6917.887,95.438,540.679,538.826,0.0
53800.0,STARLINK-4720,PAYLOAD,2024-03-19 21:38:31,15.08851132,0.0001395,53.2159,255.3158,97.1528,262.9623,0.00021477,3.133e-05,0.0,0 STARLINK-4720,1 53800U 22111AD  24079.90175527  .00003133  00000-0  21477-3 0  9995,2 53800  53.2159 255.3158 0001395  97.1528 262.9623 15.08851132 84345,6917.846,95.437,540.676,538.746,0.0
53800.0,STARLINK-4720,PAYLOAD,2024-03-20 11:57:00,15.0884347,0.0001631,53.2165,252.6357,87.6103,272.5075,6.6359e-05,7.68e-06,0.0,0 STARLINK-4720,1 53800U 22111AD  24080.49792096  .00000768  00000-0  66359-4 0  9997,2 53800  53.2165 252.6357 0001631  87.6103 272.5075 15.08843470 85243,6917.87,95.437,540.863,538.606,0.0
53800.0,STARLINK-4720,PAYLOAD,2024-03-20 18:18:33,15.08833417,0.0001389,53.2159,251.4461,100.1523,259.9626,-9.1187e-05,-1.739e-05,0.0,0 STARLINK-4720,1 53800U 22111AD  24080.76288502 -.00001739  00000-0 -91187-4 0  9997,2 53800  53.2159 251.4461 0001389 100.1523 259.9626 15.08833417 84471,6917.901,95.438,540.726,538.805,0.0
53800.0,STARLINK-4720,PAYLOAD,2024-03-21 14:58:34,15.08838739,0.0001403,53.2165,247.5893,108.4473,251.6672,2.3495e-05,8.6e-07,0.0,0 STARLINK-4720,1 53800U 22111AD  24081.62400493  .00000086  00000-0  23495-4 0  9997,2 53800  53.2165 247.5893 0001403 108.4473 251.6672 15.08838739 85412,6917.884,95.438,540.72,538.779,0.0
53800.0,STARLINK-4720,PAYLOAD,2024-03-21 18:09:20,15.08842593,0.0001471,53.2167,246.9953,110.2526,249.8624,9.5001e-05,1.224e-05,0.0,0 STARLINK-4720,1 53800U 22111AD  24081.75648343  .00001224  00000-0  95001-4 0  9996,2 53800  53.2167 246.9953 0001471 110.2526 249.8624 15.08842593 84620,6917.872,95.437,540.755,538.72,0.0
53800.0,STARLINK-4720,PAYLOAD,2024-03-22 14:49:20,15.08845306,0.000148,53.2177,243.1296,107.7303,252.3851,0.00035054,5.296e-05,0.0,0 STARLINK-4720,1 53800U 22111AD  24082.61760321  .00005296  00000-0  35054-3 0  9997,2 53800  53.2177 243.1296 0001480 107.7303 252.3851 15.08845306 85564,6917.864,95.437,540.753,538.705,0.0
53800.0,STARLINK-4720,PAYLOAD,2024-03-22 19:35:30,15.08851374,0.0001379,53.2165,242.237,102.4412,257.6734,0.00034694,5.24e-05,0.0,0 STARLINK-4720,1 53800U 22111AD  24082.81632085  .00005240  00000-0  34694-3 0  9992,2 53800  53.2165 242.2370 0001379 102.4412 257.6734 15.08851374 84787,6917.846,95.437,540.665,538.757,0.0
